[{"OBJECT_NAME":"STARLINK-4494","OBJECT_ID":"2022-101AH","EPOCH":"2026-02-16T15:44:24.739296","MEAN_MOTION":15.08831196,"ECCENTRICITY":0.0001559,"INCLINATION":53.2174,"RA_OF_ASC_NODE":153.266,"ARG_OF_PERICENTER":105.7392,"MEAN_ANOMALY":254.3772,"EPHEMERIS_TYPE":0,"CLASSIFICATION_TYPE":"U","NORAD_CAT_ID":53558,"ELEMENT_SET_NO":999,"REV_AT_EPOCH":19386,"BSTAR":-0.00010616,"MEAN_MOTION_DOT":-1.977e-5,"MEAN_MOTION_DDOT":0},{"OBJECT_NAME":"STARLINK-4508","OBJECT_ID":"2022-101AJ","EPOCH":"2026-02-16T17:21:48.824064","MEAN_MOTION":15.08838338,"ECCENTRICITY":0.0001243,"INCLINATION":53.2166,"RA_OF_ASC_NODE":158.2396,"ARG_OF_PERICENTER":88.4516,"MEAN_ANOMALY":271.6618,"EPHEMERIS_TYPE":0,"CLASSIFICATION_TYPE":"U","NORAD_CAT_ID":53559,"ELEMENT_SET_NO":999,"REV_AT_EPOCH":19314,"BSTAR":2.0962e-5,"MEAN_MOTION_DOT":4.6e-7,"MEAN_MOTION_DDOT":0},{"OBJECT_NAME":"STARLINK-4564","OBJECT_ID":"2022-101AK","EPOCH":"2026-02-16T15:10:41.796480","MEAN_MOTION":15.08841831,"ECCENTRICITY":0.0001219,"INCLINATION":53.217,"RA_OF_ASC_NODE":148.8355,"ARG_OF_PERICENTER":92.4194,"MEAN_ANOMALY":267.6938,"EPHEMERIS_TYPE":0,"CLASSIFICATION_TYPE":"U","NORAD_CAT_ID":53560,"ELEMENT_SET_NO":999,"REV_AT_EPOCH":19326,"BSTAR":2.5371e-5,"MEAN_MOTION_DOT":1.16e-6,"MEAN_MOTION_DDOT":0},{"OBJECT_NAME":"STARLINK-4563","OBJECT_ID":"2022-101AL","EPOCH":"2026-02-16T15:35:50.070048","MEAN_MOTION":15.08837304,"ECCENTRICITY":0.0001023,"INCLINATION":53.2162,"RA_OF_ASC_NODE":158.5703,"ARG_OF_PERICENTER":102.5222,"MEAN_ANOMALY":257.5885,"EPHEMERIS_TYPE":0,"CLASSIFICATION_TYPE":"U","NORAD_CAT_ID":53561,"ELEMENT_SET_NO":999,"REV_AT_EPOCH":19313,"BSTAR":4.4156e-6,"MEAN_MOTION_DOT":-2.17e-6,"MEAN_MOTION_DDOT":0},{"OBJECT_NAME":"STARLINK-4565","OBJECT_ID":"2022-101AM","EPOCH":"2026-02-16T13:30:00.357696","MEAN_MOTION":15.0883709,"ECCENTRICITY":0.0001308,"INCLINATION":53.2166,"RA_OF_ASC_NODE":149.1081,"ARG_OF_PERICENTER":94.052,"MEAN_ANOMALY":266.0622,"EPHEMERIS_TYPE":0,"CLASSIFICATION_TYPE":"U","NORAD_CAT_ID":53562,"ELEMENT_SET_NO":999,"REV_AT_EPOCH":19391,"BSTAR":2.3896e-6,"MEAN_MOTION_DOT":-2.5e-6,"MEAN_MOTION_DDOT":0},{"OBJECT_NAME":"STARLINK-4561","OBJECT_ID":"2022-101AN","EPOCH":"2026-02-16T13:40:37.385760","MEAN_MOTION":15.08832765,"ECCENTRICITY":0.0001222,"INCLINATION":53.2172,"RA_OF_ASC_NODE":149.155,"ARG_OF_PERICENTER":94.1786,"MEAN_ANOMALY":265.9346,"EPHEMERIS_TYPE":0,"CLASSIFICATION_TYPE":"U","NORAD_CAT_ID":53563,"ELEMENT_SET_NO":999,"REV_AT_EPOCH":19325,"BSTAR":-1.1124e-5,"MEAN_MOTION_DOT":-4.65e-6,"MEAN_MOTION_DDOT":0},{"OBJECT_NAME":"STARLINK-4577","OBJECT_ID":"2022-101AP","EPOCH":"2026-02-16T16:30:09.912672","MEAN_MOTION":15.08833911,"ECCENTRICITY":0.0001486,"INCLINATION":53.2188,"RA_OF_ASC_NODE":148.464,"ARG_OF_PERICENTER":100.0091,"MEAN_ANOMALY":260.1068,"EPHEMERIS_TYPE":0,"CLASSIFICATION_TYPE":"U","NORAD_CAT_ID":53564,"ELEMENT_SET_NO":999,"REV_AT_EPOCH":19327,"BSTAR":-2.8636e-5,"MEAN_MOTION_DOT":-7.44e-6,"MEAN_MOTION_DDOT":0},{"OBJECT_NAME":"STARLINK-4575","OBJECT_ID":"2022-101AQ","EPOCH":"2026-02-16T15:06:46.092096","MEAN_MOTION":15.08838981,"ECCENTRICITY":0.0001429,"INCLINATION":53.2164,"RA_OF_ASC_NODE":148.815,"ARG_OF_PERICENTER":106.0833,"MEAN_ANOMALY":254.0316,"EPHEMERIS_TYPE":0,"CLASSIFICATION_TYPE":"U","NORAD_CAT_ID":53565,"ELEMENT_SET_NO":999,"REV_AT_EPOCH":19392,"BSTAR":-2.0018e-5,"MEAN_MOTION_DOT":-6.07e-6,"MEAN_MOTION_DDOT":0},{"OBJECT_NAME":"STARLINK-4576","OBJECT_ID":"2022-101AR","EPOCH":"2026-02-16T16:19:33.191328","MEAN_MOTION":15.08837942,"ECCENTRICITY":0.0001166,"INCLINATION":53.2165,"RA_OF_ASC_NODE":148.4233,"ARG_OF_PERICENTER":94.9071,"MEAN_ANOMALY":265.2054,"EPHEMERIS_TYPE":0,"CLASSIFICATION_TYPE":"U","NORAD_CAT_ID":53566,"ELEMENT_SET_NO":999,"REV_AT_EPOCH":19396,"BSTAR":4.7114e-6,"MEAN_MOTION_DOT":-2.13e-6,"MEAN_MOTION_DDOT":0},{"OBJECT_NAME":"STARLINK-4585","OBJECT_ID":"2022-101AS","EPOCH":"2026-02-16T16:35:28.218048","MEAN_MOTION":15.08838549,"ECCENTRICITY":0.0001374,"INCLINATION":53.2169,"RA_OF_ASC_NODE":148.4887,"ARG_OF_PERICENTER":94.2873,"MEAN_ANOMALY":265.8276,"EPHEMERIS_TYPE":0,"CLASSIFICATION_TYPE":"U","NORAD_CAT_ID":53567,"ELEMENT_SET_NO":999,"REV_AT_EPOCH":19327,"BSTAR":6.9799e-6,"MEAN_MOTION_DOT":-1.77e-6,"MEAN_MOTION_DDOT":0},{"OBJECT_NAME":"STARLINK-4583","OBJECT_ID":"2022-101AT","EPOCH":"2026-02-16T12:52:51.590208","MEAN_MOTION":15.08846966,"ECCENTRICITY":0.0001331,"INCLINATION":53.2179,"RA_OF_ASC_NODE":148.9553,"ARG_OF_PERICENTER":74.087,"MEAN_ANOMALY":286.0269,"EPHEMERIS_TYPE":0,"CLASSIFICATION_TYPE":"U","NORAD_CAT_ID":53568,"ELEMENT_SET_NO":999,"REV_AT_EPOCH":19394,"BSTAR":-0.00016075,"MEAN_MOTION_DOT":-2.846e-5,"MEAN_MOTION_DDOT":0},{"OBJECT_NAME":"STARLINK-4582","OBJECT_ID":"2022-101AU","EPOCH":"2026-02-16T16:24:51.501024","MEAN_MOTION":15.08839572,"ECCENTRICITY":0.0001601,"INCLINATION":53.2183,"RA_OF_ASC_NODE":148.4439,"ARG_OF_PERICENTER":82.6126,"MEAN_ANOMALY":277.5048,"EPHEMERIS_TYPE":0,"CLASSIFICATION_TYPE":"U","NORAD_CAT_ID":53569,"ELEMENT_SET_NO":999,"REV_AT_EPOCH":19394,"BSTAR":1.5187e-5,"MEAN_MOTION_DOT":-4.6e-7,"MEAN_MOTION_DDOT":0},{"OBJECT_NAME":"STARLINK-4550","OBJECT_ID":"2022-101AV","EPOCH":"2026-02-16T12:58:10.369920","MEAN_MOTION":15.08846411,"ECCENTRICITY":0.0001325,"INCLINATION":53.2176,"RA_OF_ASC_NODE":148.9723,"ARG_OF_PERICENTER":93.6262,"MEAN_ANOMALY":266.4882,"EPHEMERIS_TYPE":0,"CLASSIFICATION_TYPE":"U","NORAD_CAT_ID":53570,"ELEMENT_SET_NO":999,"REV_AT_EPOCH":19394,"BSTAR":-9.7403e-6,"MEAN_MOTION_DOT":-4.43e-6,"MEAN_MOTION_DDOT":0},{"OBJECT_NAME":"STARLINK-4584","OBJECT_ID":"2022-101AW","EPOCH":"2026-02-16T13:03:28.504224","MEAN_MOTION":15.08838678,"ECCENTRICITY":0.0001167,"INCLINATION":53.217,"RA_OF_ASC_NODE":148.9972,"ARG_OF_PERICENTER":72.1349,"MEAN_ANOMALY":287.9771,"EPHEMERIS_TYPE":0,"CLASSIFICATION_TYPE":"U","NORAD_CAT_ID":53571,"ELEMENT_SET_NO":999,"REV_AT_EPOCH":19394,"BSTAR":3.8851e-5,"MEAN_MOTION_DOT":3.31e-6,"MEAN_MOTION_DDOT":0},{"OBJECT_NAME":"STARLINK-4555","OBJECT_ID":"2022-101AX","EPOCH":"2026-02-16T14:01:43.326336","MEAN_MOTION":15.08836545,"ECCENTRICITY":0.0001227,"INCLINATION":53.2177,"RA_OF_ASC_NODE":148.54,"ARG_OF_PERICENTER":92.3943,"MEAN_ANOMALY":267.719,"EPHEMERIS_TYPE":0,"CLASSIFICATION_TYPE":"U","NORAD_CAT_ID":53572,"ELEMENT_SET_NO":999,"REV_AT_EPOCH":19326,"BSTAR":1.7487e-5,"MEAN_MOTION_DOT":-1.0e-7,"MEAN_MOTION_DDOT":0},{"OBJECT_NAME":"STARLINK-4559","OBJECT_ID":"2022-101AZ","EPOCH":"2026-02-16T15:42:24.709824","MEAN_MOTION":15.08831337,"ECCENTRICITY":0.0001247,"INCLINATION":53.2165,"RA_OF_ASC_NODE":148.2647,"ARG_OF_PERICENTER":98.6314,"MEAN_ANOMALY":261.482,"EPHEMERIS_TYPE":0,"CLASSIFICATION_TYPE":"U","NORAD_CAT_ID":53574,"ELEMENT_SET_NO":999,"REV_AT_EPOCH":19327,"BSTAR":0.00014269,"MEAN_MOTION_DOT":1.983e-5,"MEAN_MOTION_DDOT":0},{"OBJECT_NAME":"STARLINK-4551","OBJECT_ID":"2022-101BA","EPOCH":"2026-02-16T14:17:38.355648","MEAN_MOTION":15.08837834,"ECCENTRICITY":0.0001399,"INCLINATION":53.217,"RA_OF_ASC_NODE":148.6081,"ARG_OF_PERICENTER":71.8814,"MEAN_ANOMALY":288.233,"EPHEMERIS_TYPE":0,"CLASSIFICATION_TYPE":"U","NORAD_CAT_ID":53575,"ELEMENT_SET_NO":999,"REV_AT_EPOCH":19395,"BSTAR":3.3409e-5,"MEAN_MOTION_DOT":2.44e-6,"MEAN_MOTION_DDOT":0},{"OBJECT_NAME":"STARLINK-4581","OBJECT_ID":"2022-101BB","EPOCH":"2026-02-16T14:19:01.543296","MEAN_MOTION":15.08834838,"ECCENTRICITY":0.0001405,"INCLINATION":53.2178,"RA_OF_ASC_NODE":148.6101,"ARG_OF_PERICENTER":74.9255,"MEAN_ANOMALY":285.1893,"EPHEMERIS_TYPE":0,"CLASSIFICATION_TYPE":"U","NORAD_CAT_ID":53576,"ELEMENT_SET_NO":999,"REV_AT_EPOCH":19408,"BSTAR":-1.5567e-5,"MEAN_MOTION_DOT":-5.36e-6,"MEAN_MOTION_DDOT":0},{"OBJECT_NAME":"STARLINK-4553","OBJECT_ID":"2022-101BC","EPOCH":"2026-02-16T15:47:43.175040","MEAN_MOTION":15.08835848,"ECCENTRICITY":0.0001356,"INCLINATION":53.2172,"RA_OF_ASC_NODE":148.2866,"ARG_OF_PERICENTER":85.8262,"MEAN_ANOMALY":274.2885,"EPHEMERIS_TYPE":0,"CLASSIFICATION_TYPE":"U","NORAD_CAT_ID":53577,"ELEMENT_SET_NO":999,"REV_AT_EPOCH":19409,"BSTAR":3.2684e-5,"MEAN_MOTION_DOT":2.32e-6,"MEAN_MOTION_DDOT":0},{"OBJECT_NAME":"STARLINK-4556","OBJECT_ID":"2022-101BD","EPOCH":"2026-02-16T15:31:47.756928","MEAN_MOTION":15.0884159,"ECCENTRICITY":0.000125,"INCLINATION":53.2168,"RA_OF_ASC_NODE":148.219,"ARG_OF_PERICENTER":95.3495,"MEAN_ANOMALY":264.764,"EPHEMERIS_TYPE":0,"CLASSIFICATION_TYPE":"U","NORAD_CAT_ID":53578,"ELEMENT_SET_NO":999,"REV_AT_EPOCH":19327,"BSTAR":4.8325e-5,"MEAN_MOTION_DOT":4.81e-6,"MEAN_MOTION_DDOT":0},{"OBJECT_NAME":"STARLINK-4580","OBJECT_ID":"2022-101BE","EPOCH":"2026-02-16T15:26:28.957344","MEAN_MOTION":15.08832156,"ECCENTRICITY":0.0001185,"INCLINATION":53.2172,"RA_OF_ASC_NODE":148.2041,"ARG_OF_PERICENTER":89.6335,"MEAN_ANOMALY":270.4793,"EPHEMERIS_TYPE":0,"CLASSIFICATION_TYPE":"U","NORAD_CAT_ID":53579,"ELEMENT_SET_NO":999,"REV_AT_EPOCH":19327,"BSTAR":0.00014264,"MEAN_MOTION_DOT":1.983e-5,"MEAN_MOTION_DDOT":0},{"OBJECT_NAME":"STARLINK-4691","OBJECT_ID":"2022-104A","EPOCH":"2026-02-16T05:50:18.637728","MEAN_MOTION":15.08835414,"ECCENTRICITY":0.0001444,"INCLINATION":53.2188,"RA_OF_ASC_NODE":340.6475,"ARG_OF_PERICENTER":89.7025,"MEAN_ANOMALY":270.4132,"EPHEMERIS_TYPE":0,"CLASSIFICATION_TYPE":"U","NORAD_CAT_ID":53588,"ELEMENT_SET_NO":999,"REV_AT_EPOCH":19285,"BSTAR":0.00013103,"MEAN_MOTION_DOT":1.798e-5,"MEAN_MOTION_DDOT":0},{"OBJECT_NAME":"STARLINK-4673","OBJECT_ID":"2022-104B","EPOCH":"2026-02-16T19:42:14.985792","MEAN_MOTION":15.08830423,"ECCENTRICITY":0.0001426,"INCLINATION":53.2193,"RA_OF_ASC_NODE":337.8543,"ARG_OF_PERICENTER":104.061,"MEAN_ANOMALY":256.0541,"EPHEMERIS_TYPE":0,"CLASSIFICATION_TYPE":"U","NORAD_CAT_ID":53589,"ELEMENT_SET_NO":999,"REV_AT_EPOCH":19279,"BSTAR":6.011e-5,"MEAN_MOTION_DOT":6.69e-6,"MEAN_MOTION_DDOT":0}]
